HULIANWANG DIGUI 8H     
1 65171U 25174H   25237.49150947 -.00000006  00000+0 -40329-4 0  9996
2 65171  86.4953 351.9557 0010235 268.3229  91.6741 13.37926794  1634
HULIANWANG DIGUI 8J     
1 65172U 25174J   25237.49066014  .00000101  00000+0  16271-3 0  9990
2 65172  86.4996 351.9617 0011266 262.2200  97.7663 13.38307368  1637
HULIANWANG DIGUI 8K     
1 65173U 25174K   25237.49341204 -.00001193  00000+0 -23061-2 0  9996
2 65173  86.5001 351.9635 0011440 269.1829  90.8002 13.37580624  1608
STARLINK-34956          
1 65174U 25175A   25237.91670139 -.00454690  00000+0 -28523-2 0  9999
2 65174  97.5983 108.1307 0001184  83.9506 241.6533 15.77887917  3031
STARLINK-34949          
1 65175U 25175B   25237.91670139 -.00389772  00000+0 -24315-2 0  9993
2 65175  97.5980 108.1315 0001487  71.3721 256.1635 15.77843593  2938
STARLINK-34707          
1 65176U 25175C   25237.91670139 -.00382734  00000+0 -23862-2 0  9991
2 65176  97.5982 108.1322 0001488  71.7023 257.7584 15.77838373  3097
STARLINK-34967          
1 65177U 25175D   25237.91670139 -.00389228  00000+0 -24277-2 0  9998
2 65177  97.5981 108.1331 0001404  85.1537 246.2320 15.77845680  3094
STARLINK-34929          
1 65178U 25175E   25237.91670139 -.00299476  00000+0 -18547-2 0  9997
2 65178  97.5985 108.1342 0001149  69.8867 263.4405 15.77773357  3098
STARLINK-34932          
1 65179U 25175F   25237.91670139 -.00291964  00000+0 -18068-2 0  9990
2 65179  97.5983 108.1356 0001159  70.0666 267.1069 15.77770592  3099
STARLINK-34862          
1 65180U 25175G   25237.91670139 -.00424960  00000+0 -26584-2 0  9998
2 65180  97.5985 108.1370 0001514  89.9990 249.0547 15.77871238  3092
STARLINK-34942          
1 65181U 25175H   25237.91670139 -.00296159  00000+0 -18336-2 0  9992
2 65181  97.5982 108.1348 0001134  70.2304 265.0197 15.77772220  3039
STARLINK-34944          
1 65182U 25175J   25237.91670139 -.00372346  00000+0 -23193-2 0  9993
2 65182  97.5987 108.1379 0001362  85.6899 255.3065 15.77832544  3099
STARLINK-34939          
1 65183U 25175K   25237.91670139 -.00439992  00000+0 -27561-2 0  9998
2 65183  97.5985 108.1382 0001582  93.7684 249.1190 15.77879976  2996
STARLINK-34947          
1 65184U 25175L   25237.91670139 -.00419994  00000+0 -26263-2 0  9997
2 65184  97.5987 108.1394 0001489  90.2900 254.5281 15.77867451  3099
STARLINK-34945          
1 65185U 25175M   25237.91670139 -.00420480  00000+0 -26295-2 0  9995
2 65185  97.5985 108.1399 0001507  90.2009 256.5379 15.77867643  3097
STARLINK-34965          
1 65186U 25175N   25237.91670139 -.00424111  00000+0 -26530-2 0  9993
2 65186  97.5986 108.1411 0001481  92.4108 258.1671 15.77870255  3095
STARLINK-34915          
1 65187U 25175P   25237.91670139 -.00392799  00000+0 -24510-2 0  9996
2 65187  97.5985 108.1405 0001501  85.8527 262.8212 15.77845326  3096
STARLINK-34972          
1 65188U 25175Q   25237.91670139 -.00374756  00000+0 -23348-2 0  9998
2 65188  97.5986 108.1422 0001441  85.9178 266.6019 15.77834133  2723
STARLINK-34866          
1 65189U 25175R   25237.91670139 -.00290324  00000+0 -17967-2 0  9997
2 65189  97.5989 108.1433 0001178  70.1464 284.3090 15.77766008  3092
STARLINK-34917          
1 65190U 25175S   25237.91670139 -.00281439  00000+0 -17401-2 0  9999
2 65190  97.5988 108.1440 0001159  72.6622 283.7223 15.77763907  2986
STARLINK-34948          
1 65191U 25175T   25237.91670139 -.00274663  00000+0 -16969-2 0  9999
2 65191  97.5986 108.1446 0001228  76.8899 281.4242 15.77762254  3093
STARLINK-34955          
1 65192U 25175U   25237.91670139 -.00259554  00000+0 -16014-2 0  9993
2 65192  97.5986 108.1454 0001354  75.8387 284.4029 15.77752637  3038
STARLINK-34950          
1 65193U 25175V   25237.91670139 -.00274392  00000+0 -16953-2 0  9993
2 65193  97.5989 108.1469 0001210  74.9868 287.1665 15.77761528  3038
STARLINK-34926          
1 65194U 25175W   25237.91670139 -.00242934  00000+0 -14974-2 0  9992
2 65194  97.5991 108.1501 0001123  81.2364 288.6024 15.77732258  3037
STARLINK-34928          
1 65195U 25175X   25237.91670139 -.00242368  00000+0 -14936-2 0  9992
2 65195  97.5989 108.1492 0001139  81.8676 286.0510 15.77734556  3094
STARLINK-34927          
1 65196U 25175Y   25237.91670139 -.00385537  00000+0 -24044-2 0  9990
2 65196  97.5988 108.1475 0001486  91.3363 272.7062 15.77838176  3096
STARLINK-34952          
1 65197U 25175Z   25237.91670139 -.00280772  00000+0 -17360-2 0  9999
2 65197  97.5988 108.1481 0001197  71.1074 294.8772 15.77761589  3094
STARLINK-34981          
1 65198U 25176A   25237.91670139 -.01222980  00000+0 -60058-2 0  9991
2 65198  53.1567 349.4686 0000849  61.8228 279.6517 15.84060635  3048
STARLINK-34821          
1 65199U 25176B   25237.91670139 -.01226536  00000+0 -70416-2 0  9992
2 65199  53.1568 349.5839 0000827  55.0248 230.4335 15.80771373  2983
STARLINK-34865          
1 65200U 25176C   25237.91670139 -.01206758  00000+0 -69112-2 0  9990
2 65200  53.1569 349.5888 0000768  55.3474 227.7882 15.80779783  3046
STARLINK-34843          
1 65201U 25176D   25237.91670139 -.01237256  00000+0 -71066-2 0  9999
2 65201  53.1564 349.5798 0000919  54.1788 233.2544 15.80784346  3043
STARLINK-34905          
1 65202U 25176E   25237.91670139 -.01254223  00000+0 -72175-2 0  9995
2 65202  53.1566 349.5754 0000839  54.1171 235.5026 15.80783440  3049
STARLINK-34914          
1 65203U 25176F   25237.91670139 -.01271530  00000+0 -73307-2 0  9994
2 65203  53.1565 349.5708 0000872  54.8071 236.9787 15.80782684  3049
STARLINK-34787          
1 65204U 25176G   25237.91670139 -.01290646  00000+0 -74616-2 0  9998
2 65204  53.1564 349.5660 0000831  55.0953 239.0232 15.80767152  3045
STARLINK-34796          
1 65205U 25176H   25237.91670139 -.01317190  00000+0 -76632-2 0  9993
2 65205  53.1563 349.5513 0000757  56.3168 244.7983 15.80694016  3045
STARLINK-34763          
1 65206U 25176J   25237.91670139 -.01355156  00000+0 -77543-2 0  9990
2 65206  53.1564 349.5468 0000832  55.4581 247.9347 15.80675428  3044
STARLINK-34901          
1 65207U 25176K   25237.91670139  .00522861  00000+0  22496-2 0  9994
2 65207  53.1560 349.5553 0000904   3.1530 296.2234 15.83108177  3047
STARLINK-34841          
1 65208U 25176L   25237.91670139 -.01316803  00000+0 -76567-2 0  9993
2 65208  53.1569 349.5557 0000826  55.5465 243.4452 15.80704404  3040
STARLINK-34976          
1 65209U 25176M   25237.91670139 -.01326530  00000+0 -77239-2 0  9999
2 65209  53.1566 349.5428 0000757  56.3332 248.8148 15.80698124  3042
STARLINK-34941          
1 65210U 25176N   25237.91670139 -.01364984  00000+0 -78151-2 0  9990
2 65210  53.1565 349.5379 0000860  55.9899 251.4176 15.80681148  3045
STARLINK-34847          
1 65211U 25176P   25237.91670139 -.01233100  00000+0 -66809-2 0  9993
2 65211  53.1566 349.4862 0000779  56.8597 275.6061 15.82022033  3042
STARLINK-34897          
1 65212U 25176Q   25237.91670139 -.01243452  00000+0 -67495-2 0  9997
2 65212  53.1567 349.4808 0000896  55.3414 279.6547 15.82004369  3041
STARLINK-34907          
1 65213U 25176R   25237.91670139 -.01215765  00000+0 -65615-2 0  9996
2 65213  53.1569 349.4968 0000829  54.2446 273.0595 15.82065195  3045
STARLINK-34511          
1 65214U 25176S   25237.91670139 -.01202537  00000+0 -64777-2 0  9998
2 65214  53.1572 349.5021 0000662  64.2144 260.5917 15.82078393  2987
STARLINK-33913          
1 65215U 25176T   25237.91670139 -.01221204  00000+0 -66054-2 0  9991
2 65215  53.1572 349.4907 0000771  53.2721 276.8023 15.82031021  3043
STARLINK-34302          
1 65216U 25176U   25237.91670139 -.01243371  00000+0 -67440-2 0  9991
2 65216  53.1565 349.4769 0000751  56.0087 280.8598 15.82021605  3045
STARLINK-34871          
1 65217U 25176V   25237.91670139 -.01266080  00000+0 -68849-2 0  9998
2 65217  53.1566 349.4719 0000856  54.6747 284.5976 15.82016529  3045
STARLINK-34833          
1 65218U 25176W   25237.91670139 -.01288752  00000+0 -70277-2 0  9997
2 65218  53.1568 349.4666 0000831  54.9768 286.7178 15.82008817  3047
STARLINK-34960          
1 65219U 25176X   25237.91670139 -.01313392  00000+0 -71860-2 0  9996
2 65219  53.1567 349.4614 0000877  54.3967 289.8110 15.81993195  3046
STARLINK-34603          
1 65220U 25176Y   25237.91670139 -.01335572  00000+0 -73364-2 0  9993
2 65220  53.1566 349.4560 0000806  56.2677 290.6280 15.81960538  3041
STARLINK-34974          
1 65221U 25176Z   25237.91670139 -.01344456  00000+0 -73958-2 0  9994
2 65221  53.1568 349.4511 0000851  54.1179 295.0376 15.81949894  3041
STARLINK-34999          
1 65222U 25176AA  25237.91670139 -.01349150  00000+0 -74399-2 0  9991
2 65222  53.1568 349.4458 0000770  58.1209 293.6398 15.81909291  3045
STARLINK-34996          
1 65223U 25176AB  25237.91670139 -.01416026  00000+0 -77417-2 0  9993
2 65223  53.1569 349.4285 0000774  59.2770 300.7001 15.81764662  3046
STARLINK-34975          
1 65224U 25176AC  25237.91670139 -.01399950  00000+0 -76273-2 0  9999
2 65224  53.1567 349.4343 0000750  57.9925 299.3051 15.81808674  3041
STARLINK-34257          
1 65225U 25176AD  25237.91670139 -.01393953  00000+0 -75743-2 0  9998
2 65225  53.1566 349.4396 0000803  57.9167 296.7303 15.81853679  2984
SHIYAN-28B 02           
1 65226U 25177A   25237.10708994  .00000918  00000+0  18875-3 0  9999
2 65226  10.9999  63.0806 0003555 165.6579 194.3750 14.29088024  1110
HULIANWANG DIGUI 9A     
1 65228U 25178A   25236.95166324  .00000066  00000+0  57786-4 0  9998
2 65228  86.4956 114.1568 0009295 196.6063 163.4793 13.68268607  1006
HULIANWANG DIGUI 9B     
1 65229U 25178B   25237.53595750  .00000109  00000+0  10861-3 0  9993
2 65229  86.4959 113.9462 0009980 188.0539 172.0462 13.68407963  1081
HULIANWANG DIGUI 9C     
1 65230U 25178C   25237.53529994 -.00000131  00000+0 -17278-3 0  9998
2 65230  86.4916 113.9366 0008743 187.9363 172.1659 13.68522372  1089
